NORAD_CAT_ID,OBJECT_NAME,OBJECT_TYPE,EPOCH,MEAN_MOTION,ECCENTRICITY,INCLINATION,RA_OF_ASC_NODE,ARG_OF_PERICENTER,MEAN_ANOMALY,BSTAR,MEAN_MOTION_DOT,MEAN_MOTION_DDOT,TLE_LINE0,TLE_LINE1,TLE_LINE2,SEMIMAJOR_AXIS,PERIOD,APOGEE,PERIGEE,DECAYED
52461.0,STARLINK-3900,PAYLOAD,2024-04-05 20:47:13,15.08840949,0.000117,53.2174,324.2218,93.7152,266.3974,2.5968e-05,1.25e-06,0.0,0 STARLINK-3900,1 52461U 22049L   24096.86612733  .00000125  00000-0  25968-4 0  9994,2 52461  53.2174 324.2218 0001170  93.7152 266.3974 15.08840949106282,6917.877,95.437,540.552,538.933,0.0
52461.0,STARLINK-3900,PAYLOAD,2024-04-06 14:16:27,15.08839009,0.0001294,53.2181,320.9514,92.6477,267.4663,-2.8304e-05,-7.38e-06,0.0,0 STARLINK-3900,1 52461U 22049L   24097.59476826 -.00000738  00000-0 -28304-4 0  9995,2 52461  53.2181 320.9514 0001294  92.6477 267.4663 15.08839009106391,6917.883,95.438,540.644,538.853,0.0
52461.0,STARLINK-3900,PAYLOAD,2024-04-06 22:13:24,15.08834995,0.0001244,53.2189,319.4636,90.6028,269.5106,-4.0338e-05,-9.3e-06,0.0,0 STARLINK-3900,1 52461U 22049L   24097.92597745 -.00000930  00000-0 -40338-4 0  9991,2 52461  53.2189 319.4636 0001244  90.6028 269.5106 15.08834995106442,6917.896,95.438,540.621,538.9,0.0
52461.0,STARLINK-3900,PAYLOAD,2024-04-07 14:07:15,15.08842971,0.0001527,53.2195,316.4897,87.1085,273.0082,3.5536e-05,2.78e-06,0.0,0 STARLINK-3900,1 52461U 22049L   24098.58837259  .00000278  00000-0  35536-4 0  9998,2 52461  53.2195 316.4897 0001527  87.1085 273.0082 15.08842971106540,6917.871,95.437,540.793,538.68,0.0
52461.0,STARLINK-3900,PAYLOAD,2024-04-07 20:28:47,15.08843751,0.0001355,53.2194,315.3008,83.7067,276.4079,0.00010284,1.349e-05,0.0,0 STARLINK-3900,1 52461U 22049L   24098.85332956  .00001349  00000-0  10284-3 0  9994,2 52461  53.2194 315.3008 0001355  83.7067 276.4079 15.08843751106744,6917.869,95.437,540.671,538.797,0.0
52461.0,STARLINK-3900,PAYLOAD,2024-04-07 22:04:10,15.0884414,0.0001282,53.2189,315.0034,82.3531,277.7607,0.00010157,1.329e-05,0.0,0 STARLINK-3900,1 52461U 22049L   24098.91956911  .00001329  00000-0  10157-3 0  9991,2 52461  53.2189 315.0034 0001282  82.3531 277.7607 15.08844140106591,6917.868,95.437,540.62,538.846,0.0
52461.0,STARLINK-3900,PAYLOAD,2024-04-08 07:36:29,15.08843583,0.0001363,53.2189,313.2186,76.4452,283.6692,9.2233e-05,1.18e-05,0.0,0 STARLINK-3900,1 52461U 22049L   24099.31701007  .00001180  00000-0  92233-4 0  9991,2 52461  53.2189 313.2186 0001363  76.4452 283.6692 15.08843583106652,6917.869,95.437,540.677,538.792,0.0
52461.0,STARLINK-3900,PAYLOAD,2024-04-08 20:19:35,15.08837912,0.000129,53.2184,310.839,79.2776,280.8362,0.00014,1.941e-05,0.0,0 STARLINK-3900,1 52461U 22049L   24099.84693339  .00001941  00000-0  14000-3 0  9997,2 52461  53.2184 310.8390 0001290  79.2776 280.8362 15.08837912106894,6917.887,95.438,540.644,538.859,0.0
52461.0,STARLINK-3900,PAYLOAD,2024-04-09 07:27:16,15.08842878,0.0001327,53.2187,308.7584,75.2596,284.8543,8.2159e-05,1.02e-05,0.0,0 STARLINK-3900,1 52461U 22049L   24100.31061174  .00001020  00000-0  82159-4 0  9997,2 52461  53.2187 308.7584 0001327  75.2596 284.8543 15.08842878106808,6917.872,95.437,540.655,538.819,0.0
52461.0,STARLINK-3900,PAYLOAD,2024-04-09 20:10:21,15.08843593,0.0001326,53.2186,306.379,78.1664,281.9477,4.7017e-05,4.61e-06,0.0,0 STARLINK-3900,1 52461U 22049L   24100.84053122  .00000461  00000-0  47017-4 0  9991,2 52461  53.2186 306.3790 0001326  78.1664 281.9477 15.08843593106884,6917.869,95.437,540.652,538.817,0.0
52461.0,STARLINK-3900,PAYLOAD,2024-04-10 13:39:36,15.08837798,0.0001276,53.2178,303.1081,79.2013,280.9123,8.7921e-06,-1.48e-06,0.0,0 STARLINK-3900,1 52461U 22049L   24101.56917479 -.00000148  00000-0  87921-5 0  9997,2 52461  53.2178 303.1081 0001276  79.2013 280.9123 15.08837798107155,6917.887,95.438,540.635,538.869,0.0
52461.0,STARLINK-3900,PAYLOAD,2024-04-10 20:01:09,15.08838918,0.0001251,53.2178,301.9163,92.1304,267.9831,3.3637e-05,2.47e-06,0.0,0 STARLINK-3900,1 52461U 22049L   24101.83413412  .00000247  00000-0  33637-4 0  9998,2 52461  53.2178 301.9163 0001251  92.1304 267.9831 15.08838918107035,6917.884,95.438,540.614,538.883,0.0
52461.0,STARLINK-3900,PAYLOAD,2024-04-11 19:51:56,15.08837834,0.0001328,53.2178,297.4559,92.0961,268.0183,8.4565e-05,1.058e-05,0.0,0 STARLINK-3900,1 52461U 22049L   24102.82773484  .00001058  00000-0  84565-4 0  9993,2 52461  53.2178 297.4559 0001328  92.0961 268.0183 15.08837834107348,6917.887,95.438,540.671,538.833,0.0
52461.0,STARLINK-3900,PAYLOAD,2024-04-13 17:58:07,15.08842714,0.0001367,53.2176,288.833,102.4963,257.6182,7.6147e-05,9.24e-06,0.0,0 STARLINK-3900,1 52461U 22049L   24104.74869433  .00000924  00000-0  76147-4 0  9994,2 52461  53.2176 288.8330 0001367 102.4963 257.6182 15.08842714107636,6917.872,95.437,540.683,538.791,0.0
52461.0,STARLINK-3900,PAYLOAD,2024-04-14 19:24:16,15.08801138,0.0001737,53.2186,284.0651,71.1333,288.9847,0.00059228,9.141e-05,0.0,0 STARLINK-3900,1 52461U 22049L   24105.80852247  .00009141  00000-0  59228-3 0  9997,2 52461  53.2186 284.0651 0001737  71.1333 288.9847 15.08801138107792,6917.999,95.44,541.066,538.663,0.0
52461.0,STARLINK-3900,PAYLOAD,2024-04-15 11:18:08,15.08845254,0.0001423,53.2176,281.102,82.2325,277.8828,6.2246e-05,7.03e-06,0.0,0 STARLINK-3900,1 52461U 22049L   24106.47093522  .00000703  00000-0  62246-4 0  9994,2 52461  53.2176 281.1020 0001423  82.2325 277.8828 15.08845254107899,6917.864,95.437,540.714,538.745,0.0
52461.0,STARLINK-3900,PAYLOAD,2024-04-16 11:08:57,15.08811533,0.000127,53.2158,276.6432,65.454,294.6584,0.00058113,8.966e-05,0.0,0 STARLINK-3900,1 52461U 22049L   24107.46454923  .00008966  00000-0  58113-3 0  9996,2 52461  53.2158 276.6432 0001270  65.4540 294.6584 15.08811533108044,6917.967,95.439,540.711,538.954,0.0
52461.0,STARLINK-3900,PAYLOAD,2024-04-16 17:30:28,15.08849017,0.0001227,53.2138,275.4512,78.855,281.258,3.75e-05,3.09e-06,0.0,0 STARLINK-3900,1 52461U 22049L   24107.72949103  .00000309  00000-0  37500-4 0  9995,2 52461  53.2138 275.4512 0001227  78.8550 281.2580 15.08849017108089,6917.853,95.437,540.567,538.869,0.0
52461.0,STARLINK-3900,PAYLOAD,2024-04-17 10:59:43,15.088406,0.0001454,53.2141,272.182,59.9977,300.116,5.5913e-05,6.02e-06,0.0,0 STARLINK-3900,1 52461U 22049L   24108.45813664  .00000602  00000-0  55913-4 0  9992,2 52461  53.2141 272.1820 0001454  59.9977 300.1160 15.08840600108190,6917.879,95.438,540.749,538.738,0.0
52461.0,STARLINK-3900,PAYLOAD,2024-04-17 14:10:29,15.08835827,0.00014,53.2139,271.5862,62.5974,297.5161,1.4698e-05,-5.4e-07,0.0,0 STARLINK-3900,1 52461U 22049L   24108.59061914 -.00000054  00000-0  14698-4 0  9997,2 52461  53.2139 271.5862 0001400  62.5974 297.5161 15.08835827108054,6917.893,95.438,540.727,538.79,0.0
52461.0,STARLINK-3900,PAYLOAD,2024-04-17 17:21:15,15.08839718,0.0001414,53.2166,270.9918,69.646,290.4684,2.2847e-05,7.6e-07,0.0,0 STARLINK-3900,1 52461U 22049L   24108.72309780  .00000076  00000-0  22847-4 0  9996,2 52461  53.2166 270.9918 0001414  69.6460 290.4684 15.08839718108079,6917.881,95.438,540.724,538.768,0.0
52461.0,STARLINK-3900,PAYLOAD,2024-04-18 10:50:30,15.08835113,0.0001563,53.2174,267.7188,75.2995,284.8171,5.9634e-05,6.61e-06,0.0,0 STARLINK-3900,1 52461U 22049L   24109.45174194  .00000661  00000-0  59634-4 0  9990,2 52461  53.2174 267.7188 0001563  75.2995 284.8171 15.08835113108345,6917.895,95.438,540.842,538.679,0.0
52461.0,STARLINK-3900,PAYLOAD,2024-04-18 14:01:14,15.08864369,0.0001692,53.2149,267.1232,102.7898,257.3284,0.00026248,3.895e-05,0.0,0 STARLINK-3900,1 52461U 22049L   24109.58419673  .00003895  00000-0  26248-3 0  9994,2 52461  53.2149 267.1232 0001692 102.7898 257.3284 15.08864369108202,6917.806,95.436,540.841,538.5,0.0
52461.0,STARLINK-3900,PAYLOAD,2024-04-18 17:11:58,15.08888119,0.0001551,53.2169,266.5291,97.2529,262.864,0.00045853,7.027e-05,0.0,0 STARLINK-3900,1 52461U 22049L   24109.71665500  .00007027  00000-0  45853-3 0  9995,2 52461  53.2169 266.5291 0001551  97.2529 262.8640 15.08888119108380,6917.733,95.435,540.671,538.525,0.0
52461.0,STARLINK-3900,PAYLOAD,2024-04-19 10:41:15,15.08850495,0.0001749,53.2181,263.2582,94.8084,265.3108,0.00017685,2.528e-05,0.0,0 STARLINK-3900,1 52461U 22049L   24110.44531992  .00002528  00000-0  17685-3 0  9997,2 52461  53.2181 263.2582 0001749  94.8084 265.3108 15.08850495108494,6917.848,95.437,540.923,538.503,0.0
52461.0,STARLINK-3900,PAYLOAD,2024-04-19 13:52:02,15.08848914,0.000167,53.2179,262.6632,98.7548,261.3633,0.00015652,2.204e-05,0.0,0 STARLINK-3900,1 52461U 22049L   24110.57780118  .00002204  00000-0  15652-3 0  9990,2 52461  53.2179 262.6632 0001670  98.7548 261.3633 15.08848914108358,6917.853,95.437,540.873,538.563,0.0
52461.0,STARLINK-3900,PAYLOAD,2024-04-19 15:27:25,15.08848513,0.0001615,53.2178,262.3656,97.4119,262.7057,0.00014844,2.076e-05,0.0,0 STARLINK-3900,1 52461U 22049L   24110.64404120  .00002076  00000-0  14844-3 0  9993,2 52461  53.2178 262.3656 0001615  97.4119 262.7057 15.08848513108360,6917.854,95.437,540.837,538.602,0.0
52461.0,STARLINK-3900,PAYLOAD,2024-04-20 13:42:51,15.0883547,0.0001913,53.2177,258.1999,111.6729,248.4467,-0.0003424,-5.733e-05,0.0,0 STARLINK-3900,1 52461U 22049L   24111.57143021 -.00005733  00000-0 -34240-3 0  9993,2 52461  53.2177 258.1999 0001913 111.6729 248.4467 15.08835470108666,6917.894,95.438,541.083,538.436,0.0
52461.0,STARLINK-3900,PAYLOAD,2024-04-20 15:18:14,15.08834781,0.0001821,53.2175,257.9028,107.4604,252.6588,-0.0003305,-5.543e-05,0.0,0 STARLINK-3900,1 52461U 22049L   24111.63767091 -.00005543  00000-0 -33050-3 0  9996,2 52461  53.2175 257.9028 0001821 107.4604 252.6588 15.08834781108516,6917.896,95.438,541.021,538.502,0.0
52461.0,STARLINK-3900,PAYLOAD,2024-04-21 13:33:38,15.08828086,0.0001594,53.2167,253.741,50.7101,309.4032,4.9851e-05,5.05e-06,0.0,0 STARLINK-3900,1 52461U 22049L   24112.56502944  .00000505  00000-0  49851-4 0  9991,2 52461  53.2167 253.7410 0001594  50.7101 309.4032 15.08828086108656,6917.917,95.438,540.885,538.679,0.0
